[{"OBJECT_NAME":"STARLINK-6335","OBJECT_ID":"2023-065AA","EPOCH":"2025-12-16T06:50:03.003072","MEAN_MOTION":15.0253864,"ECCENTRICITY":0.00011254,"INCLINATION":43.0043,"RA_OF_ASC_NODE":303.0907,"ARG_OF_PERICENTER":268.1195,"MEAN_ANOMALY":91.9518,"EPHEMERIS_TYPE":0,"CLASSIFICATION_TYPE":"U","NORAD_CAT_ID":56527,"ELEMENT_SET_NO":999,"REV_AT_EPOCH":14408,"BSTAR":3.7039732e-5,"MEAN_MOTION_DOT":2.97e-6,"MEAN_MOTION_DDOT":0},{"OBJECT_NAME":"STARLINK-6337","OBJECT_ID":"2023-065AB","EPOCH":"2025-12-16T05:17:30.475104","MEAN_MOTION":15.02544957,"ECCENTRICITY":0.00012087,"INCLINATION":43.005,"RA_OF_ASC_NODE":303.4737,"ARG_OF_PERICENTER":275.4443,"MEAN_ANOMALY":84.6262,"EPHEMERIS_TYPE":0,"CLASSIFICATION_TYPE":"U","NORAD_CAT_ID":56528,"ELEMENT_SET_NO":999,"REV_AT_EPOCH":14407,"BSTAR":0.00010207646,"MEAN_MOTION_DOT":1.176e-5,"MEAN_MOTION_DDOT":0},{"OBJECT_NAME":"STARLINK-6307","OBJECT_ID":"2023-065AC","EPOCH":"2025-12-16T05:02:05.288352","MEAN_MOTION":15.02529225,"ECCENTRICITY":0.00011649,"INCLINATION":43.0039,"RA_OF_ASC_NODE":291.2363,"ARG_OF_PERICENTER":277.3111,"MEAN_ANOMALY":82.7599,"EPHEMERIS_TYPE":0,"CLASSIFICATION_TYPE":"U","NORAD_CAT_ID":56529,"ELEMENT_SET_NO":999,"REV_AT_EPOCH":14421,"BSTAR":0.00018543845,"MEAN_MOTION_DOT":2.302e-5,"MEAN_MOTION_DDOT":0},{"OBJECT_NAME":"STARLINK-6318","OBJECT_ID":"2023-065AD","EPOCH":"2025-12-16T03:09:08.131968","MEAN_MOTION":15.02538186,"ECCENTRICITY":0.00010621,"INCLINATION":43.0061,"RA_OF_ASC_NODE":278.4899,"ARG_OF_PERICENTER":269.2983,"MEAN_ANOMALY":90.7738,"EPHEMERIS_TYPE":0,"CLASSIFICATION_TYPE":"U","NORAD_CAT_ID":56530,"ELEMENT_SET_NO":999,"REV_AT_EPOCH":14435,"BSTAR":6.9885196e-5,"MEAN_MOTION_DOT":7.41e-6,"MEAN_MOTION_DDOT":0},{"OBJECT_NAME":"STARLINK-6280","OBJECT_ID":"2023-065AE","EPOCH":"2025-12-16T06:33:00.534240","MEAN_MOTION":15.02535568,"ECCENTRICITY":0.00012699,"INCLINATION":43.0047,"RA_OF_ASC_NODE":290.8486,"ARG_OF_PERICENTER":270.9727,"MEAN_ANOMALY":89.097,"EPHEMERIS_TYPE":0,"CLASSIFICATION_TYPE":"U","NORAD_CAT_ID":56531,"ELEMENT_SET_NO":999,"REV_AT_EPOCH":14422,"BSTAR":0.00012288529,"MEAN_MOTION_DOT":1.457e-5,"MEAN_MOTION_DDOT":0},{"OBJECT_NAME":"STARLINK-6319","OBJECT_ID":"2023-065AF","EPOCH":"2025-12-16T06:47:23.805888","MEAN_MOTION":15.02536692,"ECCENTRICITY":0.00011043,"INCLINATION":43.005,"RA_OF_ASC_NODE":290.9249,"ARG_OF_PERICENTER":275.7977,"MEAN_ANOMALY":84.274,"EPHEMERIS_TYPE":0,"CLASSIFICATION_TYPE":"U","NORAD_CAT_ID":56532,"ELEMENT_SET_NO":999,"REV_AT_EPOCH":14422,"BSTAR":4.2736144e-5,"MEAN_MOTION_DOT":3.74e-6,"MEAN_MOTION_DDOT":0},{"OBJECT_NAME":"STARLINK-6310","OBJECT_ID":"2023-065AG","EPOCH":"2025-12-16T06:23:25.150848","MEAN_MOTION":15.02538794,"ECCENTRICITY":0.00010434,"INCLINATION":43.0039,"RA_OF_ASC_NODE":290.8002,"ARG_OF_PERICENTER":272.9368,"MEAN_ANOMALY":87.1355,"EPHEMERIS_TYPE":0,"CLASSIFICATION_TYPE":"U","NORAD_CAT_ID":56533,"ELEMENT_SET_NO":999,"REV_AT_EPOCH":14422,"BSTAR":4.7634346e-5,"MEAN_MOTION_DOT":4.4e-6,"MEAN_MOTION_DDOT":0},{"OBJECT_NAME":"STARLINK-6308","OBJECT_ID":"2023-065AH","EPOCH":"2025-12-16T05:06:52.446528","MEAN_MOTION":15.02535494,"ECCENTRICITY":0.00011211,"INCLINATION":43.0047,"RA_OF_ASC_NODE":291.2618,"ARG_OF_PERICENTER":279.5925,"MEAN_ANOMALY":80.4791,"EPHEMERIS_TYPE":0,"CLASSIFICATION_TYPE":"U","NORAD_CAT_ID":56534,"ELEMENT_SET_NO":999,"REV_AT_EPOCH":14421,"BSTAR":9.4643644e-5,"MEAN_MOTION_DOT":1.075e-5,"MEAN_MOTION_DDOT":0},{"OBJECT_NAME":"STARLINK-6309","OBJECT_ID":"2023-065AJ","EPOCH":"2025-12-16T07:58:24.690144","MEAN_MOTION":15.02542235,"ECCENTRICITY":0.00011756,"INCLINATION":43.0052,"RA_OF_ASC_NODE":316.4676,"ARG_OF_PERICENTER":267.0217,"MEAN_ANOMALY":93.049,"EPHEMERIS_TYPE":0,"CLASSIFICATION_TYPE":"U","NORAD_CAT_ID":56535,"ELEMENT_SET_NO":999,"REV_AT_EPOCH":14393,"BSTAR":7.6658146e-5,"MEAN_MOTION_DOT":8.32e-6,"MEAN_MOTION_DDOT":0},{"OBJECT_NAME":"STARLINK-6312","OBJECT_ID":"2023-065AK","EPOCH":"2025-12-16T07:48:49.997088","MEAN_MOTION":15.02529515,"ECCENTRICITY":0.00012845,"INCLINATION":43.0048,"RA_OF_ASC_NODE":316.4179,"ARG_OF_PERICENTER":270.5757,"MEAN_ANOMALY":89.4938,"EPHEMERIS_TYPE":0,"CLASSIFICATION_TYPE":"U","NORAD_CAT_ID":56536,"ELEMENT_SET_NO":999,"REV_AT_EPOCH":14393,"BSTAR":2.5026341e-5,"MEAN_MOTION_DOT":1.34e-6,"MEAN_MOTION_DDOT":0},{"OBJECT_NAME":"STARLINK-6311","OBJECT_ID":"2023-065AL","EPOCH":"2025-12-16T04:42:10.202688","MEAN_MOTION":15.02535954,"ECCENTRICITY":0.00010564,"INCLINATION":43.0058,"RA_OF_ASC_NODE":317.1683,"ARG_OF_PERICENTER":260.2944,"MEAN_ANOMALY":99.7779,"EPHEMERIS_TYPE":0,"CLASSIFICATION_TYPE":"U","NORAD_CAT_ID":56537,"ELEMENT_SET_NO":999,"REV_AT_EPOCH":14391,"BSTAR":-9.557429e-5,"MEAN_MOTION_DOT":-1.494e-5,"MEAN_MOTION_DDOT":0},{"OBJECT_NAME":"STARLINK-6314","OBJECT_ID":"2023-065AM","EPOCH":"2025-12-16T06:18:37.497600","MEAN_MOTION":15.02523936,"ECCENTRICITY":8.703e-5,"INCLINATION":43.0045,"RA_OF_ASC_NODE":290.7709,"ARG_OF_PERICENTER":310.2636,"MEAN_ANOMALY":49.813,"EPHEMERIS_TYPE":0,"CLASSIFICATION_TYPE":"U","NORAD_CAT_ID":56538,"ELEMENT_SET_NO":999,"REV_AT_EPOCH":14422,"BSTAR":-9.3246209e-5,"MEAN_MOTION_DOT":-1.462e-5,"MEAN_MOTION_DDOT":0},{"OBJECT_NAME":"STARLINK-6135","OBJECT_ID":"2023-065AN","EPOCH":"2025-12-16T06:03:31.101120","MEAN_MOTION":15.02519225,"ECCENTRICITY":9.932e-5,"INCLINATION":43.0055,"RA_OF_ASC_NODE":316.7298,"ARG_OF_PERICENTER":264.9082,"MEAN_ANOMALY":95.1647,"EPHEMERIS_TYPE":0,"CLASSIFICATION_TYPE":"U","NORAD_CAT_ID":56539,"ELEMENT_SET_NO":999,"REV_AT_EPOCH":14392,"BSTAR":0.00021796149,"MEAN_MOTION_DOT":2.741e-5,"MEAN_MOTION_DDOT":0},{"OBJECT_NAME":"STARLINK-6136","OBJECT_ID":"2023-065AP","EPOCH":"2025-12-16T07:34:26.725440","MEAN_MOTION":15.02555634,"ECCENTRICITY":0.00010651,"INCLINATION":43.004,"RA_OF_ASC_NODE":316.3481,"ARG_OF_PERICENTER":264.7953,"MEAN_ANOMALY":95.2768,"EPHEMERIS_TYPE":0,"CLASSIFICATION_TYPE":"U","NORAD_CAT_ID":56540,"ELEMENT_SET_NO":999,"REV_AT_EPOCH":14393,"BSTAR":0.00038211154,"MEAN_MOTION_DOT":4.964e-5,"MEAN_MOTION_DDOT":0},{"OBJECT_NAME":"STARLINK-6249","OBJECT_ID":"2023-065AQ","EPOCH":"2025-12-16T06:00:18.453312","MEAN_MOTION":15.02540465,"ECCENTRICITY":0.00012712,"INCLINATION":43.0051,"RA_OF_ASC_NODE":316.7149,"ARG_OF_PERICENTER":266.5263,"MEAN_ANOMALY":93.5434,"EPHEMERIS_TYPE":0,"CLASSIFICATION_TYPE":"U","NORAD_CAT_ID":56541,"ELEMENT_SET_NO":999,"REV_AT_EPOCH":14392,"BSTAR":3.2001498e-5,"MEAN_MOTION_DOT":2.29e-6,"MEAN_MOTION_DDOT":0},{"OBJECT_NAME":"STARLINK-6266","OBJECT_ID":"2023-065AR","EPOCH":"2025-12-16T06:08:18.544416","MEAN_MOTION":15.0254126,"ECCENTRICITY":0.0001591,"INCLINATION":43.0054,"RA_OF_ASC_NODE":316.7575,"ARG_OF_PERICENTER":269.0696,"MEAN_ANOMALY":90.9964,"EPHEMERIS_TYPE":0,"CLASSIFICATION_TYPE":"U","NORAD_CAT_ID":56542,"ELEMENT_SET_NO":999,"REV_AT_EPOCH":14392,"BSTAR":-0.00011651113,"MEAN_MOTION_DOT":-1.777e-5,"MEAN_MOTION_DDOT":0}]
