STARLINK-6335           
1 56527U 23065AA  25350.28475698  .00000297  00000+0  37040-4 0  9990
2 56527  43.0043 303.0907 0001125 268.1195  91.9518 15.02538640144088
STARLINK-6337           
1 56528U 23065AB  25350.22049161  .00001176  00000+0  10208-3 0  9990
2 56528  43.0050 303.4737 0001208 275.4443  84.6262 15.02544957144073
STARLINK-6307           
1 56529U 23065AC  25350.20978343  .00002302  00000+0  18544-3 0  9995
2 56529  43.0039 291.2363 0001164 277.3111  82.7599 15.02529225144213
STARLINK-6318           
1 56530U 23065AD  25350.13134412  .00000741  00000+0  69885-4 0  9990
2 56530  43.0061 278.4899 0001062 269.2983  90.7738 15.02538186144350
STARLINK-6280           
1 56531U 23065AE  25350.27292285  .00001457  00000+0  12289-3 0  9999
2 56531  43.0047 290.8486 0001269 270.9727  89.0970 15.02535568144225
STARLINK-6319           
1 56532U 23065AF  25350.28291442  .00000374  00000+0  42736-4 0  9993
2 56532  43.0050 290.9249 0001104 275.7977  84.2740 15.02536692144227
STARLINK-6310           
1 56533U 23065AG  25350.26626332  .00000440  00000+0  47634-4 0  9998
2 56533  43.0039 290.8002 0001043 272.9368  87.1355 15.02538794144225
STARLINK-6308           
1 56534U 23065AH  25350.21310702  .00001075  00000+0  94644-4 0  9993
2 56534  43.0047 291.2618 0001121 279.5925  80.4791 15.02535494144215
STARLINK-6309           
1 56535U 23065AJ  25350.33223021  .00000832  00000+0  76658-4 0  9999
2 56535  43.0052 316.4676 0001175 267.0217  93.0490 15.02542235143936
STARLINK-6312           
1 56536U 23065AK  25350.32557867  .00000134  00000+0  25026-4 0  9995
2 56536  43.0048 316.4179 0001284 270.5757  89.4938 15.02529515143931
STARLINK-6311           
1 56537U 23065AL  25350.19595142 -.00001494  00000+0 -95574-4 0  9996
2 56537  43.0058 317.1683 0001056 260.2944  99.7779 15.02535954143911
STARLINK-6314           
1 56538U 23065AM  25350.26293400 -.00001462  00000+0 -93246-4 0  9996
2 56538  43.0045 290.7709 0000870 310.2636  49.8130 15.02523936144229
STARLINK-6135           
1 56539U 23065AN  25350.25244330  .00002741  00000+0  21796-3 0  9993
2 56539  43.0055 316.7298 0000993 264.9082  95.1647 15.02519225143928
STARLINK-6136           
1 56540U 23065AP  25350.31558710  .00004964  00000+0  38211-3 0  9991
2 56540  43.0040 316.3481 0001065 264.7953  95.2768 15.02555634143930
STARLINK-6249           
1 56541U 23065AQ  25350.25021358  .00000229  00000+0  32001-4 0  9990
2 56541  43.0051 316.7149 0001271 266.5263  93.5434 15.02540465143927
STARLINK-6266           
1 56542U 23065AR  25350.25577019 -.00001777  00000+0 -11651-3 0  9999
2 56542  43.0054 316.7575 0001591 269.0696  90.9964 15.02541260143920
